{"type": "FeatureCollection", "name": "ne_110m_admin_0_countries", "crs": {"type": "name", "properties": {"name": "urn:ogc:def:crs:OGC:1.3:CRS84"}}, "features": [{"type": "Feature", "properties": {"featurecla": "Admin-0 country", "scalerank": 1, "LABELRANK": 3, "SOVEREIGNT": "Kazakhstan", "SOV_A3": "KA1", "ADM0_DIF": 1, "LEVEL": 1, "TYPE": "Sovereignty", "TLC": "1", "ADMIN": "Kazakhstan", "ADM0_A3": "KAZ", "GEOU_DIF": 0, "GEOUNIT": "Kazakhstan", "GU_A3": "KAZ", "SU_DIF": 0, "SUBUNIT": "Kazakhstan", "SU_A3": "KAZ", "BRK_DIFF": 0, "NAME": "Kazakhstan", "NAME_LONG": "Kazakhstan", "BRK_A3": "KAZ", "BRK_NAME": "Kazakhstan", "BRK_GROUP": null, "ABBREV": "Kaz.", "POSTAL": "KZ", "FORMAL_EN": "Republic of Kazakhstan", "FORMAL_FR": null, "NAME_CIAWF": "Kazakhstan", "NOTE_ADM0": null, "NOTE_BRK": null, "NAME_SORT": "Kazakhstan", "NAME_ALT": null, "MAPCOLOR7": 6, "MAPCOLOR8": 1, "MAPCOLOR9": 6, "MAPCOLOR13": 1, "POP_EST": 18513930, "POP_RANK": 14, "POP_YEAR": 2019, "GDP_MD": 181665, "GDP_YEAR": 2019, "ECONOMY": "6. Developing region", "INCOME_GRP": "3. Upper middle income", "FIPS_10": "KZ", "ISO_A2": "KZ", "ISO_A2_EH": "KZ", "ISO_A3": "KAZ", "ISO_A3_EH": "KAZ", "ISO_N3": "398", "ISO_N3_EH": "398", "UN_A3": "398", "WB_A2": "KZ", "WB_A3": "KAZ", "WOE_ID": -90, "WOE_ID_EH": 23424871, "WOE_NOTE": "Includes Baykonur Cosmodrome as an Admin-1 states provinces", "ADM0_ISO": "KAZ", "ADM0_DIFF": null, "ADM0_TLC": "KAZ", "ADM0_A3_US": "KAZ", "ADM0_A3_FR": "KAZ", "ADM0_A3_RU": "KAZ", "ADM0_A3_ES": "KAZ", "ADM0_A3_CN": "KAZ", "ADM0_A3_TW": "KAZ", "ADM0_A3_IN": "KAZ", "ADM0_A3_NP": "KAZ", "ADM0_A3_PK": "KAZ", "ADM0_A3_DE": "KAZ", "ADM0_A3_GB": "KAZ", "ADM0_A3_BR": "KAZ", "ADM0_A3_IL": "KAZ", "ADM0_A3_PS": "KAZ", "ADM0_A3_SA": "KAZ", "ADM0_A3_EG": "KAZ", "ADM0_A3_MA": "KAZ", "ADM0_A3_PT": "KAZ", "ADM0_A3_AR": "KAZ", "ADM0_A3_JP": "KAZ", "ADM0_A3_KO": "KAZ", "ADM0_A3_VN": "KAZ", "ADM0_A3_TR": "KAZ", "ADM0_A3_ID": "KAZ", "ADM0_A3_PL": "KAZ", "ADM0_A3_GR": "KAZ", "ADM0_A3_IT": "KAZ", "ADM0_A3_NL": "KAZ", "ADM0_A3_SE": "KAZ", "ADM0_A3_BD": "KAZ", "ADM0_A3_UA": "KAZ", "ADM0_A3_UN": -99, "ADM0_A3_WB": -99, "CONTINENT": "Asia", "REGION_UN": "Asia", "SUBREGION": "Central Asia", "REGION_WB": "Europe & Central Asia", "NAME_LEN": 10, "LONG_LEN": 10, "ABBREV_LEN": 4, "TINY": -99, "HOMEPART": 1, "MIN_ZOOM": 0, "MIN_LABEL": 2.7, "MAX_LABEL": 7, "LABEL_X": 68.685548, "LABEL_Y": 49.054149, "NE_ID": 1159320967, "WIKIDATAID": "Q232", "NAME_AR": "\u0643\u0627\u0632\u0627\u062e\u0633\u062a\u0627\u0646", "NAME_BN": "\u0995\u09be\u099c\u09be\u0996\u09b8\u09cd\u09a4\u09be\u09a8", "NAME_DE": "Kasachstan", "NAME_EN": "Kazakhstan", "NAME_ES": "Kazajist\u00e1n", "NAME_FA": "\u0642\u0632\u0627\u0642\u0633\u062a\u0627\u0646", "NAME_FR": "Kazakhstan", "NAME_EL": "\u039a\u03b1\u03b6\u03b1\u03ba\u03c3\u03c4\u03ac\u03bd", "NAME_HE": "\u05e7\u05d6\u05d7\u05e1\u05d8\u05df", "NAME_HI": "\u0915\u091c\u093c\u093e\u0916\u093c\u093f\u0938\u094d\u0924\u093e\u0928", "NAME_HU": "Kazahszt\u00e1n", "NAME_ID": "Kazakhstan", "NAME_IT": "Kazakistan", "NAME_JA": "\u30ab\u30b6\u30d5\u30b9\u30bf\u30f3", "NAME_KO": "\uce74\uc790\ud750\uc2a4\ud0c4", "NAME_NL": "Kazachstan", "NAME_PL": "Kazachstan", "NAME_PT": "Cazaquist\u00e3o", "NAME_RU": "\u041a\u0430\u0437\u0430\u0445\u0441\u0442\u0430\u043d", "NAME_SV": "Kazakstan", "NAME_TR": "Kazakistan", "NAME_UK": "\u041a\u0430\u0437\u0430\u0445\u0441\u0442\u0430\u043d", "NAME_UR": "\u0642\u0627\u0632\u0642\u0633\u062a\u0627\u0646", "NAME_VI": "Kazakhstan", "NAME_ZH": "\u54c8\u8428\u514b\u65af\u5766", "NAME_ZHT": "\u54c8\u85a9\u514b", "FCLASS_ISO": "Admin-0 country", "TLC_DIFF": null, "FCLASS_TLC": "Admin-0 country", "FCLASS_US": null, "FCLASS_FR": null, "FCLASS_RU": null, "FCLASS_ES": null, "FCLASS_CN": null, "FCLASS_TW": null, "FCLASS_IN": null, "FCLASS_NP": null, "FCLASS_PK": null, "FCLASS_DE": null, "FCLASS_GB": null, "FCLASS_BR": null, "FCLASS_IL": null, "FCLASS_PS": null, "FCLASS_SA": null, "FCLASS_EG": null, "FCLASS_MA": null, "FCLASS_PT": null, "FCLASS_AR": null, "FCLASS_JP": null, "FCLASS_KO": null, "FCLASS_VN": null, "FCLASS_TR": null, "FCLASS_ID": null, "FCLASS_PL": null, "FCLASS_GR": null, "FCLASS_IT": null, "FCLASS_NL": null, "FCLASS_SE": null, "FCLASS_BD": null, "FCLASS_UA": null}, "bbox": [46.466446, 40.662325, 87.35997, 55.38525], "geometry": {"type": "Polygon", "coordinates": [[[87.35997, 49.214981], [86.598776, 48.549182], [85.768233, 48.455751], [85.720484, 47.452969], [85.16429, 47.000956], [83.180484, 47.330031], [82.458926, 45.53965], [81.947071, 45.317027], [79.966106, 44.917517], [80.866206, 43.180362], [80.18015, 42.920068], [80.25999, 42.349999], [79.643645, 42.496683], [79.142177, 42.856092], [77.658392, 42.960686], [76.000354, 42.988022], [75.636965, 42.8779], [74.212866, 43.298339], [73.645304, 43.091272], [73.489758, 42.500894], [71.844638, 42.845395], [71.186281, 42.704293], [70.962315, 42.266154], [70.388965, 42.081308], [69.070027, 41.384244], [68.632483, 40.668681], [68.259896, 40.662325], [67.985856, 41.135991], [66.714047, 41.168444], [66.510649, 41.987644], [66.023392, 41.994646], [66.098012, 42.99766], [64.900824, 43.728081], [63.185787, 43.650075], [62.0133, 43.504477], [61.05832, 44.405817], [60.239972, 44.784037], [58.689989, 45.500014], [58.503127, 45.586804], [55.928917, 44.995858], [55.968191, 41.308642], [55.455251, 41.259859], [54.755345, 42.043971], [54.079418, 42.324109], [52.944293, 42.116034], [52.50246, 41.783316], [52.446339, 42.027151], [52.692112, 42.443895], [52.501426, 42.792298], [51.342427, 43.132975], [50.891292, 44.031034], [50.339129, 44.284016], [50.305643, 44.609836], [51.278503, 44.514854], [51.316899, 45.245998], [52.16739, 45.408391], [53.040876, 45.259047], [53.220866, 46.234646], [53.042737, 46.853006], [52.042023, 46.804637], [51.191945, 47.048705], [50.034083, 46.60899], [49.10116, 46.39933], [48.59325, 46.56104], [48.694734, 47.075628], [48.05725, 47.74377], [47.31524, 47.71585], [46.466446, 48.394152], [47.043672, 49.152039], [46.751596, 49.356006], [47.54948, 50.454698], [48.577841, 49.87476], [48.702382, 50.605128], [50.766648, 51.692762], [52.328724, 51.718652], [54.532878, 51.02624], [55.71694, 50.62171], [56.77798, 51.04355], [58.36332, 51.06364], [59.642282, 50.545442], [59.932807, 50.842194], [61.337424, 50.79907], [61.588003, 51.272659], [59.967534, 51.96042], [60.927269, 52.447548], [60.739993, 52.719986], [61.699986, 52.979996], [60.978066, 53.664993], [61.4366, 54.00625], [65.178534, 54.354228], [65.66687, 54.60125], [68.1691, 54.970392], [69.068167, 55.38525], [70.865267, 55.169734], [71.180131, 54.133285], [72.22415, 54.376655], [73.508516, 54.035617], [73.425679, 53.48981], [74.38482, 53.54685], [76.8911, 54.490524], [76.525179, 54.177003], [77.800916, 53.404415], [80.03556, 50.864751], [80.568447, 51.388336], [81.945986, 50.812196], [83.383004, 51.069183], [83.935115, 50.889246], [84.416377, 50.3114], [85.11556, 50.117303], [85.54127, 49.692859], [86.829357, 49.826675], [87.35997, 49.214981]]]}}, {"type": "Feature", "properties": {"featurecla": "Admin-0 country", "scalerank": 1, "LABELRANK": 3, "SOVEREIGNT": "Uzbekistan", "SOV_A3": "UZB", "ADM0_DIF": 0, "LEVEL": 2, "TYPE": "Sovereign country", "TLC": "1", "ADMIN": "Uzbekistan", "ADM0_A3": "UZB", "GEOU_DIF": 0, "GEOUNIT": "Uzbekistan", "GU_A3": "UZB", "SU_DIF": 0, "SUBUNIT": "Uzbekistan", "SU_A3": "UZB", "BRK_DIFF": 0, "NAME": "Uzbekistan", "NAME_LONG": "Uzbekistan", "BRK_A3": "UZB", "BRK_NAME": "Uzbekistan", "BRK_GROUP": null, "ABBREV": "Uzb.", "POSTAL": "UZ", "FORMAL_EN": "Republic of Uzbekistan", "FORMAL_FR": null, "NAME_CIAWF": "Uzbekistan", "NOTE_ADM0": null, "NOTE_BRK": null, "NAME_SORT": "Uzbekistan", "NAME_ALT": null, "MAPCOLOR7": 2, "MAPCOLOR8": 3, "MAPCOLOR9": 5, "MAPCOLOR13": 4, "POP_EST": 33580650, "POP_RANK": 15, "POP_YEAR": 2019, "GDP_MD": 57921, "GDP_YEAR": 2019, "ECONOMY": "6. Developing region", "INCOME_GRP": "4. Lower middle income", "FIPS_10": "UZ", "ISO_A2": "UZ", "ISO_A2_EH": "UZ", "ISO_A3": "UZB", "ISO_A3_EH": "UZB", "ISO_N3": "860", "ISO_N3_EH": "860", "UN_A3": "860", "WB_A2": "UZ", "WB_A3": "UZB", "WOE_ID": 23424980, "WOE_ID_EH": 23424980, "WOE_NOTE": "Exact WOE match as country", "ADM0_ISO": "UZB", "ADM0_DIFF": null, "ADM0_TLC": "UZB", "ADM0_A3_US": "UZB", "ADM0_A3_FR": "UZB", "ADM0_A3_RU": "UZB", "ADM0_A3_ES": "UZB", "ADM0_A3_CN": "UZB", "ADM0_A3_TW": "UZB", "ADM0_A3_IN": "UZB", "ADM0_A3_NP": "UZB", "ADM0_A3_PK": "UZB", "ADM0_A3_DE": "UZB", "ADM0_A3_GB": "UZB", "ADM0_A3_BR": "UZB", "ADM0_A3_IL": "UZB", "ADM0_A3_PS": "UZB", "ADM0_A3_SA": "UZB", "ADM0_A3_EG": "UZB", "ADM0_A3_MA": "UZB", "ADM0_A3_PT": "UZB", "ADM0_A3_AR": "UZB", "ADM0_A3_JP": "UZB", "ADM0_A3_KO": "UZB", "ADM0_A3_VN": "UZB", "ADM0_A3_TR": "UZB", "ADM0_A3_ID": "UZB", "ADM0_A3_PL": "UZB", "ADM0_A3_GR": "UZB", "ADM0_A3_IT": "UZB", "ADM0_A3_NL": "UZB", "ADM0_A3_SE": "UZB", "ADM0_A3_BD": "UZB", "ADM0_A3_UA": "UZB", "ADM0_A3_UN": -99, "ADM0_A3_WB": -99, "CONTINENT": "Asia", "REGION_UN": "Asia", "SUBREGION": "Central Asia", "REGION_WB": "Europe & Central Asia", "NAME_LEN": 10, "LONG_LEN": 10, "ABBREV_LEN": 4, "TINY": 5, "HOMEPART": 1, "MIN_ZOOM": 0, "MIN_LABEL": 3, "MAX_LABEL": 8, "LABEL_X": 64.005429, "LABEL_Y": 41.693603, "NE_ID": 1159321405, "WIKIDATAID": "Q265", "NAME_AR": "\u0623\u0648\u0632\u0628\u0643\u0633\u062a\u0627\u0646", "NAME_BN": "\u0989\u099c\u09ac\u09c7\u0995\u09bf\u09b8\u09cd\u09a4\u09be\u09a8", "NAME_DE": "Usbekistan", "NAME_EN": "Uzbekistan", "NAME_ES": "Uzbekist\u00e1n", "NAME_FA": "\u0627\u0632\u0628\u06a9\u0633\u062a\u0627\u0646", "NAME_FR": "Ouzb\u00e9kistan", "NAME_EL": "\u039f\u03c5\u03b6\u03bc\u03c0\u03b5\u03ba\u03b9\u03c3\u03c4\u03ac\u03bd", "NAME_HE": "\u05d0\u05d5\u05d6\u05d1\u05e7\u05d9\u05e1\u05d8\u05df", "NAME_HI": "\u0909\u091c\u093c\u094d\u092c\u0947\u0915\u093f\u0938\u094d\u0924\u093e\u0928", "NAME_HU": "\u00dczbegiszt\u00e1n", "NAME_ID": "Uzbekistan", "NAME_IT": "Uzbekistan", "NAME_JA": "\u30a6\u30ba\u30d9\u30ad\u30b9\u30bf\u30f3", "NAME_KO": "\uc6b0\uc988\ubca0\ud0a4\uc2a4\ud0c4", "NAME_NL": "Oezbekistan", "NAME_PL": "Uzbekistan", "NAME_PT": "Uzbequist\u00e3o", "NAME_RU": "\u0423\u0437\u0431\u0435\u043a\u0438\u0441\u0442\u0430\u043d", "NAME_SV": "Uzbekistan", "NAME_TR": "\u00d6zbekistan", "NAME_UK": "\u0423\u0437\u0431\u0435\u043a\u0438\u0441\u0442\u0430\u043d", "NAME_UR": "\u0627\u0632\u0628\u06a9\u0633\u062a\u0627\u0646", "NAME_VI": "Uzbekistan", "NAME_ZH": "\u4e4c\u5179\u522b\u514b\u65af\u5766", "NAME_ZHT": "\u70cf\u8332\u5225\u514b", "FCLASS_ISO": "Admin-0 country", "TLC_DIFF": null, "FCLASS_TLC": "Admin-0 country", "FCLASS_US": null, "FCLASS_FR": null, "FCLASS_RU": null, "FCLASS_ES": null, "FCLASS_CN": null, "FCLASS_TW": null, "FCLASS_IN": null, "FCLASS_NP": null, "FCLASS_PK": null, "FCLASS_DE": null, "FCLASS_GB": null, "FCLASS_BR": null, "FCLASS_IL": null, "FCLASS_PS": null, "FCLASS_SA": null, "FCLASS_EG": null, "FCLASS_MA": null, "FCLASS_PT": null, "FCLASS_AR": null, "FCLASS_JP": null, "FCLASS_KO": null, "FCLASS_VN": null, "FCLASS_TR": null, "FCLASS_ID": null, "FCLASS_PL": null, "FCLASS_GR": null, "FCLASS_IT": null, "FCLASS_NL": null, "FCLASS_SE": null, "FCLASS_BD": null, "FCLASS_UA": null}, "bbox": [55.928917, 37.144994, 73.055417, 45.586804], "geometry": {"type": "Polygon", "coordinates": [[[55.968191, 41.308642], [55.928917, 44.995858], [58.503127, 45.586804], [58.689989, 45.500014], [60.239972, 44.784037], [61.05832, 44.405817], [62.0133, 43.504477], [63.185787, 43.650075], [64.900824, 43.728081], [66.098012, 42.99766], [66.023392, 41.994646], [66.510649, 41.987644], [66.714047, 41.168444], [67.985856, 41.135991], [68.259896, 40.662325], [68.632483, 40.668681], [69.070027, 41.384244], [70.388965, 42.081308], [70.962315, 42.266154], [71.259248, 42.167711], [70.420022, 41.519998], [71.157859, 41.143587], [71.870115, 41.3929], [73.055417, 40.866033], [71.774875, 40.145844], [71.014198, 40.244366], [70.601407, 40.218527], [70.45816, 40.496495], [70.666622, 40.960213], [69.329495, 40.727824], [69.011633, 40.086158], [68.536416, 39.533453], [67.701429, 39.580478], [67.44222, 39.140144], [68.176025, 38.901553], [68.392033, 38.157025], [67.83, 37.144994], [67.075782, 37.356144], [66.518607, 37.362784], [66.54615, 37.974685], [65.215999, 38.402695], [64.170223, 38.892407], [63.518015, 39.363257], [62.37426, 40.053886], [61.882714, 41.084857], [61.547179, 41.26637], [60.465953, 41.220327], [60.083341, 41.425146], [59.976422, 42.223082], [58.629011, 42.751551], [57.78653, 42.170553], [56.932215, 41.826026], [57.096391, 41.32231], [55.968191, 41.308642]]]}}, {"type": "Feature", "properties": {"featurecla": "Admin-0 country", "scalerank": 1, "LABELRANK": 3, "SOVEREIGNT": "Afghanistan", "SOV_A3": "AFG", "ADM0_DIF": 0, "LEVEL": 2, "TYPE": "Sovereign country", "TLC": "1", "ADMIN": "Afghanistan", "ADM0_A3": "AFG", "GEOU_DIF": 0, "GEOUNIT": "Afghanistan", "GU_A3": "AFG", "SU_DIF": 0, "SUBUNIT": "Afghanistan", "SU_A3": "AFG", "BRK_DIFF": 0, "NAME": "Afghanistan", "NAME_LONG": "Afghanistan", "BRK_A3": "AFG", "BRK_NAME": "Afghanistan", "BRK_GROUP": null, "ABBREV": "Afg.", "POSTAL": "AF", "FORMAL_EN": "Islamic State of Afghanistan", "FORMAL_FR": null, "NAME_CIAWF": "Afghanistan", "NOTE_ADM0": null, "NOTE_BRK": null, "NAME_SORT": "Afghanistan", "NAME_ALT": null, "MAPCOLOR7": 5, "MAPCOLOR8": 6, "MAPCOLOR9": 8, "MAPCOLOR13": 7, "POP_EST": 38041754, "POP_RANK": 15, "POP_YEAR": 2019, "GDP_MD": 19291, "GDP_YEAR": 2019, "ECONOMY": "7. Least developed region", "INCOME_GRP": "5. Low income", "FIPS_10": "AF", "ISO_A2": "AF", "ISO_A2_EH": "AF", "ISO_A3": "AFG", "ISO_A3_EH": "AFG", "ISO_N3": "004", "ISO_N3_EH": "004", "UN_A3": "004", "WB_A2": "AF", "WB_A3": "AFG", "WOE_ID": 23424739, "WOE_ID_EH": 23424739, "WOE_NOTE": "Exact WOE match as country", "ADM0_ISO": "AFG", "ADM0_DIFF": null, "ADM0_TLC": "AFG", "ADM0_A3_US": "AFG", "ADM0_A3_FR": "AFG", "ADM0_A3_RU": "AFG", "ADM0_A3_ES": "AFG", "ADM0_A3_CN": "AFG", "ADM0_A3_TW": "AFG", "ADM0_A3_IN": "AFG", "ADM0_A3_NP": "AFG", "ADM0_A3_PK": "AFG", "ADM0_A3_DE": "AFG", "ADM0_A3_GB": "AFG", "ADM0_A3_BR": "AFG", "ADM0_A3_IL": "AFG", "ADM0_A3_PS": "AFG", "ADM0_A3_SA": "AFG", "ADM0_A3_EG": "AFG", "ADM0_A3_MA": "AFG", "ADM0_A3_PT": "AFG", "ADM0_A3_AR": "AFG", "ADM0_A3_JP": "AFG", "ADM0_A3_KO": "AFG", "ADM0_A3_VN": "AFG", "ADM0_A3_TR": "AFG", "ADM0_A3_ID": "AFG", "ADM0_A3_PL": "AFG", "ADM0_A3_GR": "AFG", "ADM0_A3_IT": "AFG", "ADM0_A3_NL": "AFG", "ADM0_A3_SE": "AFG", "ADM0_A3_BD": "AFG", "ADM0_A3_UA": "AFG", "ADM0_A3_UN": -99, "ADM0_A3_WB": -99, "CONTINENT": "Asia", "REGION_UN": "Asia", "SUBREGION": "Southern Asia", "REGION_WB": "South Asia", "NAME_LEN": 11, "LONG_LEN": 11, "ABBREV_LEN": 4, "TINY": -99, "HOMEPART": 1, "MIN_ZOOM": 0, "MIN_LABEL": 3, "MAX_LABEL": 7, "LABEL_X": 66.496586, "LABEL_Y": 34.164262, "NE_ID": 1159320319, "WIKIDATAID": "Q889", "NAME_AR": "\u0623\u0641\u063a\u0627\u0646\u0633\u062a\u0627\u0646", "NAME_BN": "\u0986\u09ab\u0997\u09be\u09a8\u09bf\u09b8\u09cd\u09a4\u09be\u09a8", "NAME_DE": "Afghanistan", "NAME_EN": "Afghanistan", "NAME_ES": "Afganist\u00e1n", "NAME_FA": "\u0627\u0641\u063a\u0627\u0646\u0633\u062a\u0627\u0646", "NAME_FR": "Afghanistan", "NAME_EL": "\u0391\u03c6\u03b3\u03b1\u03bd\u03b9\u03c3\u03c4\u03ac\u03bd", "NAME_HE": "\u05d0\u05e4\u05d2\u05e0\u05d9\u05e1\u05d8\u05df", "NAME_HI": "\u0905\u092b\u093c\u094d\u0917\u093e\u0928\u093f\u0938\u094d\u0924\u093e\u0928", "NAME_HU": "Afganiszt\u00e1n", "NAME_ID": "Afganistan", "NAME_IT": "Afghanistan", "NAME_JA": "\u30a2\u30d5\u30ac\u30cb\u30b9\u30bf\u30f3", "NAME_KO": "\uc544\ud504\uac00\ub2c8\uc2a4\ud0c4", "NAME_NL": "Afghanistan", "NAME_PL": "Afganistan", "NAME_PT": "Afeganist\u00e3o", "NAME_RU": "\u0410\u0444\u0433\u0430\u043d\u0438\u0441\u0442\u0430\u043d", "NAME_SV": "Afghanistan", "NAME_TR": "Afganistan", "NAME_UK": "\u0410\u0444\u0433\u0430\u043d\u0456\u0441\u0442\u0430\u043d", "NAME_UR": "\u0627\u0641\u063a\u0627\u0646\u0633\u062a\u0627\u0646", "NAME_VI": "Afghanistan", "NAME_ZH": "\u963f\u5bcc\u6c57", "NAME_ZHT": "\u963f\u5bcc\u6c57", "FCLASS_ISO": "Admin-0 country", "TLC_DIFF": null, "FCLASS_TLC": "Admin-0 country", "FCLASS_US": null, "FCLASS_FR": null, "FCLASS_RU": null, "FCLASS_ES": null, "FCLASS_CN": null, "FCLASS_TW": null, "FCLASS_IN": null, "FCLASS_NP": null, "FCLASS_PK": null, "FCLASS_DE": null, "FCLASS_GB": null, "FCLASS_BR": null, "FCLASS_IL": null, "FCLASS_PS": null, "FCLASS_SA": null, "FCLASS_EG": null, "FCLASS_MA": null, "FCLASS_PT": null, "FCLASS_AR": null, "FCLASS_JP": null, "FCLASS_KO": null, "FCLASS_VN": null, "FCLASS_TR": null, "FCLASS_ID": null, "FCLASS_PL": null, "FCLASS_GR": null, "FCLASS_IT": null, "FCLASS_NL": null, "FCLASS_SE": null, "FCLASS_BD": null, "FCLASS_UA": null}, "bbox": [60.52843, 29.318572, 75.158028, 38.486282], "geometry": {"type": "Polygon", "coordinates": [[[66.518607, 37.362784], [67.075782, 37.356144], [67.83, 37.144994], [68.135562, 37.023115], [68.859446, 37.344336], [69.196273, 37.151144], [69.518785, 37.608997], [70.116578, 37.588223], [70.270574, 37.735165], [70.376304, 38.138396], [70.806821, 38.486282], [71.348131, 38.258905], [71.239404, 37.953265], [71.541918, 37.905774], [71.448693, 37.065645], [71.844638, 36.738171], [72.193041, 36.948288], [72.63689, 37.047558], [73.260056, 37.495257], [73.948696, 37.421566], [74.980002, 37.41999], [75.158028, 37.133031], [74.575893, 37.020841], [74.067552, 36.836176], [72.920025, 36.720007], [71.846292, 36.509942], [71.262348, 36.074388], [71.498768, 35.650563], [71.613076, 35.153203], [71.115019, 34.733126], [71.156773, 34.348911], [70.881803, 33.988856], [69.930543, 34.02012], [70.323594, 33.358533], [69.687147, 33.105499], [69.262522, 32.501944], [69.317764, 31.901412], [68.926677, 31.620189], [68.556932, 31.71331], [67.792689, 31.58293], [67.683394, 31.303154], [66.938891, 31.304911], [66.381458, 30.738899], [66.346473, 29.887943], [65.046862, 29.472181], [64.350419, 29.560031], [64.148002, 29.340819], [63.550261, 29.468331], [62.549857, 29.318572], [60.874248, 29.829239], [61.781222, 30.73585], [61.699314, 31.379506], [60.941945, 31.548075], [60.863655, 32.18292], [60.536078, 32.981269], [60.9637, 33.528832], [60.52843, 33.676446], [60.803193, 34.404102], [61.210817, 35.650072], [62.230651, 35.270664], [62.984662, 35.404041], [63.193538, 35.857166], [63.982896, 36.007957], [64.546479, 36.312073], [64.746105, 37.111818], [65.588948, 37.305217], [65.745631, 37.661164], [66.217385, 37.39379], [66.518607, 37.362784]]]}}, {"type": "Feature", "properties": {"featurecla": "Admin-0 country", "scalerank": 1, "LABELRANK": 4, "SOVEREIGNT": "Tajikistan", "SOV_A3": "TJK", "ADM0_DIF": 0, "LEVEL": 2, "TYPE": "Sovereign country", "TLC": "1", "ADMIN": "Tajikistan", "ADM0_A3": "TJK", "GEOU_DIF": 0, "GEOUNIT": "Tajikistan", "GU_A3": "TJK", "SU_DIF": 0, "SUBUNIT": "Tajikistan", "SU_A3": "TJK", "BRK_DIFF": 0, "NAME": "Tajikistan", "NAME_LONG": "Tajikistan", "BRK_A3": "TJK", "BRK_NAME": "Tajikistan", "BRK_GROUP": null, "ABBREV": "Tjk.", "POSTAL": "TJ", "FORMAL_EN": "Republic of Tajikistan", "FORMAL_FR": null, "NAME_CIAWF": "Tajikistan", "NOTE_ADM0": null, "NOTE_BRK": null, "NAME_SORT": "Tajikistan", "NAME_ALT": null, "MAPCOLOR7": 3, "MAPCOLOR8": 6, "MAPCOLOR9": 2, "MAPCOLOR13": 5, "POP_EST": 9321018, "POP_RANK": 13, "POP_YEAR": 2019, "GDP_MD": 8116, "GDP_YEAR": 2019, "ECONOMY": "6. Developing region", "INCOME_GRP": "5. Low income", "FIPS_10": "TI", "ISO_A2": "TJ", "ISO_A2_EH": "TJ", "ISO_A3": "TJK", "ISO_A3_EH": "TJK", "ISO_N3": "762", "ISO_N3_EH": "762", "UN_A3": "762", "WB_A2": "TJ", "WB_A3": "TJK", "WOE_ID": 23424961, "WOE_ID_EH": 23424961, "WOE_NOTE": "Exact WOE match as country", "ADM0_ISO": "TJK", "ADM0_DIFF": null, "ADM0_TLC": "TJK", "ADM0_A3_US": "TJK", "ADM0_A3_FR": "TJK", "ADM0_A3_RU": "TJK", "ADM0_A3_ES": "TJK", "ADM0_A3_CN": "TJK", "ADM0_A3_TW": "TJK", "ADM0_A3_IN": "TJK", "ADM0_A3_NP": "TJK", "ADM0_A3_PK": "TJK", "ADM0_A3_DE": "TJK", "ADM0_A3_GB": "TJK", "ADM0_A3_BR": "TJK", "ADM0_A3_IL": "TJK", "ADM0_A3_PS": "TJK", "ADM0_A3_SA": "TJK", "ADM0_A3_EG": "TJK", "ADM0_A3_MA": "TJK", "ADM0_A3_PT": "TJK", "ADM0_A3_AR": "TJK", "ADM0_A3_JP": "TJK", "ADM0_A3_KO": "TJK", "ADM0_A3_VN": "TJK", "ADM0_A3_TR": "TJK", "ADM0_A3_ID": "TJK", "ADM0_A3_PL": "TJK", "ADM0_A3_GR": "TJK", "ADM0_A3_IT": "TJK", "ADM0_A3_NL": "TJK", "ADM0_A3_SE": "TJK", "ADM0_A3_BD": "TJK", "ADM0_A3_UA": "TJK", "ADM0_A3_UN": -99, "ADM0_A3_WB": -99, "CONTINENT": "Asia", "REGION_UN": "Asia", "SUBREGION": "Central Asia", "REGION_WB": "Europe & Central Asia", "NAME_LEN": 10, "LONG_LEN": 10, "ABBREV_LEN": 4, "TINY": -99, "HOMEPART": 1, "MIN_ZOOM": 0, "MIN_LABEL": 4, "MAX_LABEL": 9, "LABEL_X": 72.587276, "LABEL_Y": 38.199835, "NE_ID": 1159321307, "WIKIDATAID": "Q863", "NAME_AR": "\u0637\u0627\u062c\u064a\u0643\u0633\u062a\u0627\u0646", "NAME_BN": "\u09a4\u09be\u099c\u09bf\u0995\u09bf\u09b8\u09cd\u09a4\u09be\u09a8", "NAME_DE": "Tadschikistan", "NAME_EN": "Tajikistan", "NAME_ES": "Tayikist\u00e1n", "NAME_FA": "\u062a\u0627\u062c\u06cc\u06a9\u0633\u062a\u0627\u0646", "NAME_FR": "Tadjikistan", "NAME_EL": "\u03a4\u03b1\u03c4\u03b6\u03b9\u03ba\u03b9\u03c3\u03c4\u03ac\u03bd", "NAME_HE": "\u05d8\u05d2\u05f3\u05d9\u05e7\u05d9\u05e1\u05d8\u05df", "NAME_HI": "\u0924\u093e\u091c\u093f\u0915\u093f\u0938\u094d\u0924\u093e\u0928", "NAME_HU": "T\u00e1dzsikiszt\u00e1n", "NAME_ID": "Tajikistan", "NAME_IT": "Tagikistan", "NAME_JA": "\u30bf\u30b8\u30ad\u30b9\u30bf\u30f3", "NAME_KO": "\ud0c0\uc9c0\ud0a4\uc2a4\ud0c4", "NAME_NL": "Tadzjikistan", "NAME_PL": "Tad\u017cykistan", "NAME_PT": "Tajiquist\u00e3o", "NAME_RU": "\u0422\u0430\u0434\u0436\u0438\u043a\u0438\u0441\u0442\u0430\u043d", "NAME_SV": "Tadzjikistan", "NAME_TR": "Tacikistan", "NAME_UK": "\u0422\u0430\u0434\u0436\u0438\u043a\u0438\u0441\u0442\u0430\u043d", "NAME_UR": "\u062a\u0627\u062c\u06a9\u0633\u062a\u0627\u0646", "NAME_VI": "Tajikistan", "NAME_ZH": "\u5854\u5409\u514b\u65af\u5766", "NAME_ZHT": "\u5854\u5409\u514b", "FCLASS_ISO": "Admin-0 country", "TLC_DIFF": null, "FCLASS_TLC": "Admin-0 country", "FCLASS_US": null, "FCLASS_FR": null, "FCLASS_RU": null, "FCLASS_ES": null, "FCLASS_CN": null, "FCLASS_TW": null, "FCLASS_IN": null, "FCLASS_NP": null, "FCLASS_PK": null, "FCLASS_DE": null, "FCLASS_GB": null, "FCLASS_BR": null, "FCLASS_IL": null, "FCLASS_PS": null, "FCLASS_SA": null, "FCLASS_EG": null, "FCLASS_MA": null, "FCLASS_PT": null, "FCLASS_AR": null, "FCLASS_JP": null, "FCLASS_KO": null, "FCLASS_VN": null, "FCLASS_TR": null, "FCLASS_ID": null, "FCLASS_PL": null, "FCLASS_GR": null, "FCLASS_IT": null, "FCLASS_NL": null, "FCLASS_SE": null, "FCLASS_BD": null, "FCLASS_UA": null}, "bbox": [67.44222, 36.738171, 74.980002, 40.960213], "geometry": {"type": "Polygon", "coordinates": [[[67.83, 37.144994], [68.392033, 38.157025], [68.176025, 38.901553], [67.44222, 39.140144], [67.701429, 39.580478], [68.536416, 39.533453], [69.011633, 40.086158], [69.329495, 40.727824], [70.666622, 40.960213], [70.45816, 40.496495], [70.601407, 40.218527], [71.014198, 40.244366], [70.648019, 39.935754], [69.55961, 40.103211], [69.464887, 39.526683], [70.549162, 39.604198], [71.784694, 39.279463], [73.675379, 39.431237], [73.928852, 38.505815], [74.257514, 38.606507], [74.864816, 38.378846], [74.829986, 37.990007], [74.980002, 37.41999], [73.948696, 37.421566], [73.260056, 37.495257], [72.63689, 37.047558], [72.193041, 36.948288], [71.844638, 36.738171], [71.448693, 37.065645], [71.541918, 37.905774], [71.239404, 37.953265], [71.348131, 38.258905], [70.806821, 38.486282], [70.376304, 38.138396], [70.270574, 37.735165], [70.116578, 37.588223], [69.518785, 37.608997], [69.196273, 37.151144], [68.859446, 37.344336], [68.135562, 37.023115], [67.83, 37.144994]]]}}, {"type": "Feature", "properties": {"featurecla": "Admin-0 country", "scalerank": 1, "LABELRANK": 4, "SOVEREIGNT": "Kyrgyzstan", "SOV_A3": "KGZ", "ADM0_DIF": 0, "LEVEL": 2, "TYPE": "Sovereign country", "TLC": "1", "ADMIN": "Kyrgyzstan", "ADM0_A3": "KGZ", "GEOU_DIF": 0, "GEOUNIT": "Kyrgyzstan", "GU_A3": "KGZ", "SU_DIF": 0, "SUBUNIT": "Kyrgyzstan", "SU_A3": "KGZ", "BRK_DIFF": 0, "NAME": "Kyrgyzstan", "NAME_LONG": "Kyrgyzstan", "BRK_A3": "KGZ", "BRK_NAME": "Kyrgyzstan", "BRK_GROUP": null, "ABBREV": "Kgz.", "POSTAL": "KG", "FORMAL_EN": "Kyrgyz Republic", "FORMAL_FR": null, "NAME_CIAWF": "Kyrgyzstan", "NOTE_ADM0": null, "NOTE_BRK": null, "NAME_SORT": "Kyrgyz Republic", "NAME_ALT": null, "MAPCOLOR7": 5, "MAPCOLOR8": 7, "MAPCOLOR9": 7, "MAPCOLOR13": 6, "POP_EST": 6456900, "POP_RANK": 13, "POP_YEAR": 2019, "GDP_MD": 8454, "GDP_YEAR": 2019, "ECONOMY": "6. Developing region", "INCOME_GRP": "5. Low income", "FIPS_10": "KG", "ISO_A2": "KG", "ISO_A2_EH": "KG", "ISO_A3": "KGZ", "ISO_A3_EH": "KGZ", "ISO_N3": "417", "ISO_N3_EH": "417", "UN_A3": "417", "WB_A2": "KG", "WB_A3": "KGZ", "WOE_ID": 23424864, "WOE_ID_EH": 23424864, "WOE_NOTE": "Exact WOE match as country", "ADM0_ISO": "KGZ", "ADM0_DIFF": null, "ADM0_TLC": "KGZ", "ADM0_A3_US": "KGZ", "ADM0_A3_FR": "KGZ", "ADM0_A3_RU": "KGZ", "ADM0_A3_ES": "KGZ", "ADM0_A3_CN": "KGZ", "ADM0_A3_TW": "KGZ", "ADM0_A3_IN": "KGZ", "ADM0_A3_NP": "KGZ", "ADM0_A3_PK": "KGZ", "ADM0_A3_DE": "KGZ", "ADM0_A3_GB": "KGZ", "ADM0_A3_BR": "KGZ", "ADM0_A3_IL": "KGZ", "ADM0_A3_PS": "KGZ", "ADM0_A3_SA": "KGZ", "ADM0_A3_EG": "KGZ", "ADM0_A3_MA": "KGZ", "ADM0_A3_PT": "KGZ", "ADM0_A3_AR": "KGZ", "ADM0_A3_JP": "KGZ", "ADM0_A3_KO": "KGZ", "ADM0_A3_VN": "KGZ", "ADM0_A3_TR": "KGZ", "ADM0_A3_ID": "KGZ", "ADM0_A3_PL": "KGZ", "ADM0_A3_GR": "KGZ", "ADM0_A3_IT": "KGZ", "ADM0_A3_NL": "KGZ", "ADM0_A3_SE": "KGZ", "ADM0_A3_BD": "KGZ", "ADM0_A3_UA": "KGZ", "ADM0_A3_UN": -99, "ADM0_A3_WB": -99, "CONTINENT": "Asia", "REGION_UN": "Asia", "SUBREGION": "Central Asia", "REGION_WB": "Europe & Central Asia", "NAME_LEN": 10, "LONG_LEN": 10, "ABBREV_LEN": 4, "TINY": -99, "HOMEPART": 1, "MIN_ZOOM": 0, "MIN_LABEL": 3, "MAX_LABEL": 8, "LABEL_X": 74.532637, "LABEL_Y": 41.66854, "NE_ID": 1159320977, "WIKIDATAID": "Q813", "NAME_AR": "\u0642\u064a\u0631\u063a\u064a\u0632\u0633\u062a\u0627\u0646", "NAME_BN": "\u0995\u09bf\u09b0\u0997\u09bf\u099c\u09b8\u09cd\u09a4\u09be\u09a8", "NAME_DE": "Kirgisistan", "NAME_EN": "Kyrgyzstan", "NAME_ES": "Kirguist\u00e1n", "NAME_FA": "\u0642\u0631\u0642\u06cc\u0632\u0633\u062a\u0627\u0646", "NAME_FR": "Kirghizistan", "NAME_EL": "\u039a\u03b9\u03c1\u03b3\u03b9\u03b6\u03af\u03b1", "NAME_HE": "\u05e7\u05d9\u05e8\u05d2\u05d9\u05d6\u05e1\u05d8\u05df", "NAME_HI": "\u0915\u093f\u0930\u094d\u0917\u093f\u091c\u093c\u0938\u094d\u0924\u093e\u0928", "NAME_HU": "Kirgiziszt\u00e1n", "NAME_ID": "Kirgizstan", "NAME_IT": "Kirghizistan", "NAME_JA": "\u30ad\u30eb\u30ae\u30b9", "NAME_KO": "\ud0a4\ub974\uae30\uc2a4\uc2a4\ud0c4", "NAME_NL": "Kirgizi\u00eb", "NAME_PL": "Kirgistan", "NAME_PT": "Quirguist\u00e3o", "NAME_RU": "\u041a\u0438\u0440\u0433\u0438\u0437\u0438\u044f", "NAME_SV": "Kirgizistan", "NAME_TR": "K\u0131rg\u0131zistan", "NAME_UK": "\u041a\u0438\u0440\u0433\u0438\u0437\u0441\u0442\u0430\u043d", "NAME_UR": "\u06a9\u0631\u063a\u06cc\u0632\u0633\u062a\u0627\u0646", "NAME_VI": "Kyrgyzstan", "NAME_ZH": "\u5409\u5c14\u5409\u65af\u65af\u5766", "NAME_ZHT": "\u5409\u723e\u5409\u65af", "FCLASS_ISO": "Admin-0 country", "TLC_DIFF": null, "FCLASS_TLC": "Admin-0 country", "FCLASS_US": null, "FCLASS_FR": null, "FCLASS_RU": null, "FCLASS_ES": null, "FCLASS_CN": null, "FCLASS_TW": null, "FCLASS_IN": null, "FCLASS_NP": null, "FCLASS_PK": null, "FCLASS_DE": null, "FCLASS_GB": null, "FCLASS_BR": null, "FCLASS_IL": null, "FCLASS_PS": null, "FCLASS_SA": null, "FCLASS_EG": null, "FCLASS_MA": null, "FCLASS_PT": null, "FCLASS_AR": null, "FCLASS_JP": null, "FCLASS_KO": null, "FCLASS_VN": null, "FCLASS_TR": null, "FCLASS_ID": null, "FCLASS_PL": null, "FCLASS_GR": null, "FCLASS_IT": null, "FCLASS_NL": null, "FCLASS_SE": null, "FCLASS_BD": null, "FCLASS_UA": null}, "bbox": [69.464887, 39.279463, 80.25999, 43.298339], "geometry": {"type": "Polygon", "coordinates": [[[70.962315, 42.266154], [71.186281, 42.704293], [71.844638, 42.845395], [73.489758, 42.500894], [73.645304, 43.091272], [74.212866, 43.298339], [75.636965, 42.8779], [76.000354, 42.988022], [77.658392, 42.960686], [79.142177, 42.856092], [79.643645, 42.496683], [80.25999, 42.349999], [80.11943, 42.123941], [78.543661, 41.582243], [78.187197, 41.185316], [76.904484, 41.066486], [76.526368, 40.427946], [75.467828, 40.562072], [74.776862, 40.366425], [73.822244, 39.893973], [73.960013, 39.660008], [73.675379, 39.431237], [71.784694, 39.279463], [70.549162, 39.604198], [69.464887, 39.526683], [69.55961, 40.103211], [70.648019, 39.935754], [71.014198, 40.244366], [71.774875, 40.145844], [73.055417, 40.866033], [71.870115, 41.3929], [71.157859, 41.143587], [70.420022, 41.519998], [71.259248, 42.167711], [70.962315, 42.266154]]]}}, {"type": "Feature", "properties": {"featurecla": "Admin-0 country", "scalerank": 1, "LABELRANK": 4, "SOVEREIGNT": "Turkmenistan", "SOV_A3": "TKM", "ADM0_DIF": 0, "LEVEL": 2, "TYPE": "Sovereign country", "TLC": "1", "ADMIN": "Turkmenistan", "ADM0_A3": "TKM", "GEOU_DIF": 0, "GEOUNIT": "Turkmenistan", "GU_A3": "TKM", "SU_DIF": 0, "SUBUNIT": "Turkmenistan", "SU_A3": "TKM", "BRK_DIFF": 0, "NAME": "Turkmenistan", "NAME_LONG": "Turkmenistan", "BRK_A3": "TKM", "BRK_NAME": "Turkmenistan", "BRK_GROUP": null, "ABBREV": "Turkm.", "POSTAL": "TM", "FORMAL_EN": "Turkmenistan", "FORMAL_FR": null, "NAME_CIAWF": "Turkmenistan", "NOTE_ADM0": null, "NOTE_BRK": null, "NAME_SORT": "Turkmenistan", "NAME_ALT": null, "MAPCOLOR7": 3, "MAPCOLOR8": 2, "MAPCOLOR9": 1, "MAPCOLOR13": 9, "POP_EST": 5942089, "POP_RANK": 13, "POP_YEAR": 2019, "GDP_MD": 40761, "GDP_YEAR": 2018, "ECONOMY": "6. Developing region", "INCOME_GRP": "3. Upper middle income", "FIPS_10": "TX", "ISO_A2": "TM", "ISO_A2_EH": "TM", "ISO_A3": "TKM", "ISO_A3_EH": "TKM", "ISO_N3": "795", "ISO_N3_EH": "795", "UN_A3": "795", "WB_A2": "TM", "WB_A3": "TKM", "WOE_ID": 23424972, "WOE_ID_EH": 23424972, "WOE_NOTE": "Exact WOE match as country", "ADM0_ISO": "TKM", "ADM0_DIFF": null, "ADM0_TLC": "TKM", "ADM0_A3_US": "TKM", "ADM0_A3_FR": "TKM", "ADM0_A3_RU": "TKM", "ADM0_A3_ES": "TKM", "ADM0_A3_CN": "TKM", "ADM0_A3_TW": "TKM", "ADM0_A3_IN": "TKM", "ADM0_A3_NP": "TKM", "ADM0_A3_PK": "TKM", "ADM0_A3_DE": "TKM", "ADM0_A3_GB": "TKM", "ADM0_A3_BR": "TKM", "ADM0_A3_IL": "TKM", "ADM0_A3_PS": "TKM", "ADM0_A3_SA": "TKM", "ADM0_A3_EG": "TKM", "ADM0_A3_MA": "TKM", "ADM0_A3_PT": "TKM", "ADM0_A3_AR": "TKM", "ADM0_A3_JP": "TKM", "ADM0_A3_KO": "TKM", "ADM0_A3_VN": "TKM", "ADM0_A3_TR": "TKM", "ADM0_A3_ID": "TKM", "ADM0_A3_PL": "TKM", "ADM0_A3_GR": "TKM", "ADM0_A3_IT": "TKM", "ADM0_A3_NL": "TKM", "ADM0_A3_SE": "TKM", "ADM0_A3_BD": "TKM", "ADM0_A3_UA": "TKM", "ADM0_A3_UN": -99, "ADM0_A3_WB": -99, "CONTINENT": "Asia", "REGION_UN": "Asia", "SUBREGION": "Central Asia", "REGION_WB": "Europe & Central Asia", "NAME_LEN": 12, "LONG_LEN": 12, "ABBREV_LEN": 6, "TINY": -99, "HOMEPART": 1, "MIN_ZOOM": 0, "MIN_LABEL": 3, "MAX_LABEL": 8, "LABEL_X": 58.676647, "LABEL_Y": 39.855246, "NE_ID": 1159321309, "WIKIDATAID": "Q874", "NAME_AR": "\u062a\u0631\u0643\u0645\u0627\u0646\u0633\u062a\u0627\u0646", "NAME_BN": "\u09a4\u09c1\u09b0\u09cd\u0995\u09ae\u09c7\u09a8\u09bf\u09b8\u09cd\u09a4\u09be\u09a8", "NAME_DE": "Turkmenistan", "NAME_EN": "Turkmenistan", "NAME_ES": "Turkmenist\u00e1n", "NAME_FA": "\u062a\u0631\u06a9\u0645\u0646\u0633\u062a\u0627\u0646", "NAME_FR": "Turkm\u00e9nistan", "NAME_EL": "\u03a4\u03bf\u03c5\u03c1\u03ba\u03bc\u03b5\u03bd\u03b9\u03c3\u03c4\u03ac\u03bd", "NAME_HE": "\u05d8\u05d5\u05e8\u05e7\u05de\u05e0\u05d9\u05e1\u05d8\u05df", "NAME_HI": "\u0924\u0941\u0930\u094d\u0915\u092e\u0947\u0928\u093f\u0938\u094d\u0924\u093e\u0928", "NAME_HU": "T\u00fcrkmeniszt\u00e1n", "NAME_ID": "Turkmenistan", "NAME_IT": "Turkmenistan", "NAME_JA": "\u30c8\u30eb\u30af\u30e1\u30cb\u30b9\u30bf\u30f3", "NAME_KO": "\ud22c\ub974\ud06c\uba54\ub2c8\uc2a4\ud0c4", "NAME_NL": "Turkmenistan", "NAME_PL": "Turkmenistan", "NAME_PT": "Turquemenist\u00e3o", "NAME_RU": "\u0422\u0443\u0440\u043a\u043c\u0435\u043d\u0438\u044f", "NAME_SV": "Turkmenistan", "NAME_TR": "T\u00fcrkmenistan", "NAME_UK": "\u0422\u0443\u0440\u043a\u043c\u0435\u043d\u0456\u0441\u0442\u0430\u043d", "NAME_UR": "\u062a\u0631\u06a9\u0645\u0627\u0646\u0633\u062a\u0627\u0646", "NAME_VI": "Turkmenistan", "NAME_ZH": "\u571f\u5e93\u66fc\u65af\u5766", "NAME_ZHT": "\u571f\u5eab\u66fc", "FCLASS_ISO": "Admin-0 country", "TLC_DIFF": null, "FCLASS_TLC": "Admin-0 country", "FCLASS_US": null, "FCLASS_FR": null, "FCLASS_RU": null, "FCLASS_ES": null, "FCLASS_CN": null, "FCLASS_TW": null, "FCLASS_IN": null, "FCLASS_NP": null, "FCLASS_PK": null, "FCLASS_DE": null, "FCLASS_GB": null, "FCLASS_BR": null, "FCLASS_IL": null, "FCLASS_PS": null, "FCLASS_SA": null, "FCLASS_EG": null, "FCLASS_MA": null, "FCLASS_PT": null, "FCLASS_AR": null, "FCLASS_JP": null, "FCLASS_KO": null, "FCLASS_VN": null, "FCLASS_TR": null, "FCLASS_ID": null, "FCLASS_PL": null, "FCLASS_GR": null, "FCLASS_IT": null, "FCLASS_NL": null, "FCLASS_SE": null, "FCLASS_BD": null, "FCLASS_UA": null}, "bbox": [52.50246, 35.270664, 66.54615, 42.751551], "geometry": {"type": "Polygon", "coordinates": [[[52.50246, 41.783316], [52.944293, 42.116034], [54.079418, 42.324109], [54.755345, 42.043971], [55.455251, 41.259859], [55.968191, 41.308642], [57.096391, 41.32231], [56.932215, 41.826026], [57.78653, 42.170553], [58.629011, 42.751551], [59.976422, 42.223082], [60.083341, 41.425146], [60.465953, 41.220327], [61.547179, 41.26637], [61.882714, 41.084857], [62.37426, 40.053886], [63.518015, 39.363257], [64.170223, 38.892407], [65.215999, 38.402695], [66.54615, 37.974685], [66.518607, 37.362784], [66.217385, 37.39379], [65.745631, 37.661164], [65.588948, 37.305217], [64.746105, 37.111818], [64.546479, 36.312073], [63.982896, 36.007957], [63.193538, 35.857166], [62.984662, 35.404041], [62.230651, 35.270664], [61.210817, 35.650072], [61.123071, 36.491597], [60.377638, 36.527383], [59.234762, 37.412988], [58.436154, 37.522309], [57.330434, 38.029229], [56.619366, 38.121394], [56.180375, 37.935127], [55.511578, 37.964117], [54.800304, 37.392421], [53.921598, 37.198918], [53.735511, 37.906136], [53.880929, 38.952093], [53.101028, 39.290574], [53.357808, 39.975286], [52.693973, 40.033629], [52.915251, 40.876523], [53.858139, 40.631034], [54.736845, 40.951015], [54.008311, 41.551211], [53.721713, 42.123191], [52.91675, 41.868117], [52.814689, 41.135371], [52.50246, 41.783316]]]}}], "bbox": [-180, -90, 180, 83.64513]}